start=new Date('2022-10-23T00:00:00.000Z').valueOf();
sats=[{"INCLINATION":"53.2155","LAUNCH_DATE":"2022-09-24","ARG_OF_PERICENTER":"43.3854","PERIOD":"91.533","EPHEMERIS_TYPE":"0","SEMIMAJOR_AXIS":"6727.878","TLE_LINE1":"1 53925U 22119AR  22295.91667824  .00087000  00000-0  61774-3 0  9995","ELEMENT_SET_NO":"999","MEAN_MOTION_DDOT":"0.0000000000000","OBJECT_ID":"2022-119AR","MEAN_MOTION_DOT":"0.00087000","MEAN_ELEMENT_THEORY":"SGP4","REF_FRAME":"TEME","MEAN_MOTION":"15.73205947","MEAN_ANOMALY":"157.0796","PERIAPSIS":"348.945","OBJECT_NAME":"STARLINK-5011","FILE":"3629571","NORAD_CAT_ID":"53925","CENTER_NAME":"EARTH","APOAPSIS":"350.541","BSTAR":"0.00061774000000","TLE_LINE2":"2 53925  53.2155 114.6531 0001186  43.3854 157.0796 15.73205947  4834","RA_OF_ASC_NODE":"114.6531","TIME_SYSTEM":"UTC","CLASSIFICATION_TYPE":"U","ECCENTRICITY":"0.00011860","COUNTRY_CODE":"US","GP_ID":"215898538","DECAY_DATE":null,"SITE":"AFETR","OBJECT_TYPE":"PAYLOAD","EPOCH":"2022-10-22T22:00:00.999936","RCS_SIZE":"LARGE","REV_AT_EPOCH":"483"},{"MEAN_ANOMALY":"128.5070","MEAN_MOTION":"15.73200224","OBJECT_NAME":"STARLINK-5014","PERIAPSIS":"349.049","FILE":"3629797","NORAD_CAT_ID":"53926","REF_FRAME":"TEME","APOAPSIS":"350.470","CENTER_NAME":"EARTH","RA_OF_ASC_NODE":"114.6410","TIME_SYSTEM":"UTC","CLASSIFICATION_TYPE":"U","ECCENTRICITY":"0.00010560","BSTAR":"0.00079118000000","TLE_LINE2":"2 53926  53.2149 114.6410 0001056  76.6863 128.5070 15.73200224  1309","EPOCH":"2022-10-22T22:00:00.999936","REV_AT_EPOCH":"130","RCS_SIZE":"LARGE","GP_ID":"215928659","COUNTRY_CODE":"US","OBJECT_TYPE":"PAYLOAD","DECAY_DATE":null,"SITE":"AFETR","INCLINATION":"53.2149","LAUNCH_DATE":"2022-09-24","ARG_OF_PERICENTER":"76.6863","SEMIMAJOR_AXIS":"6727.895","TLE_LINE1":"1 53926U 22119AS  22295.91667824  .00111907  00000-0  79118-3 0  9991","ELEMENT_SET_NO":"999","PERIOD":"91.533","EPHEMERIS_TYPE":"0","MEAN_MOTION_DDOT":"0.0000000000000","MEAN_ELEMENT_THEORY":"SGP4","OBJECT_ID":"2022-119AS","MEAN_MOTION_DOT":"0.00111907"},{"CENTER_NAME":"EARTH","APOAPSIS":"350.702","REF_FRAME":"TEME","NORAD_CAT_ID":"53927","FILE":"3629797","PERIAPSIS":"348.869","OBJECT_NAME":"STARLINK-5008","MEAN_ANOMALY":"131.4208","MEAN_MOTION":"15.73191088","DECAY_DATE":null,"OBJECT_TYPE":"PAYLOAD","SITE":"AFETR","GP_ID":"215928404","COUNTRY_CODE":"US","RCS_SIZE":"LARGE","REV_AT_EPOCH":"130","EPOCH":"2022-10-22T22:00:00.999936","TLE_LINE2":"2 53927  53.2148 114.6425 0001362  72.5687 131.4208 15.73191088  1307","BSTAR":"0.00088638000000","ECCENTRICITY":"0.00013620","CLASSIFICATION_TYPE":"U","RA_OF_ASC_NODE":"114.6425","TIME_SYSTEM":"UTC","EPHEMERIS_TYPE":"0","PERIOD":"91.534","TLE_LINE1":"1 53927U 22119AT  22295.91667824  .00125605  00000-0  88638-3 0  9999","ELEMENT_SET_NO":"999","SEMIMAJOR_AXIS":"6727.921","ARG_OF_PERICENTER":"72.5687","LAUNCH_DATE":"2022-09-24","INCLINATION":"53.2148","OBJECT_ID":"2022-119AT","MEAN_MOTION_DOT":"0.00125605","MEAN_ELEMENT_THEORY":"SGP4","MEAN_MOTION_DDOT":"0.0000000000000"},{"MEAN_MOTION_DDOT":"0.0000000000000","MEAN_MOTION_DOT":"0.00060768","OBJECT_ID":"2022-119AU","MEAN_ELEMENT_THEORY":"SGP4","ARG_OF_PERICENTER":"69.5651","LAUNCH_DATE":"2022-09-24","INCLINATION":"53.2148","EPHEMERIS_TYPE":"0","PERIOD":"91.532","ELEMENT_SET_NO":"999","TLE_LINE1":"1 53928U 22119AU  22295.91667824  .00060768  00000-0  43400-3 0  9996","SEMIMAJOR_AXIS":"6727.854","TLE_LINE2":"2 53928  53.2148 114.6385 0000992  69.5651 136.2711 15.73214402  1306","BSTAR":"0.00043400000000","ECCENTRICITY":"0.00009920","CLASSIFICATION_TYPE":"U","TIME_SYSTEM":"UTC","RA_OF_ASC_NODE":"114.6385","DECAY_DATE":null,"OBJECT_TYPE":"PAYLOAD","SITE":"AFETR","COUNTRY_CODE":"US","GP_ID":"215929383","REV_AT_EPOCH":"130","RCS_SIZE":"LARGE","EPOCH":"2022-10-22T22:00:00.999936","REF_FRAME":"TEME","NORAD_CAT_ID":"53928","FILE":"3629797","OBJECT_NAME":"STARLINK-5009","PERIAPSIS":"349.052","MEAN_ANOMALY":"136.2711","MEAN_MOTION":"15.73214402","CENTER_NAME":"EARTH","APOAPSIS":"350.387"},{"BSTAR":"0.00063310000000","TLE_LINE2":"2 53929  53.2138 114.2314 0002176  16.2905 299.4507 15.73200011  4849","CLASSIFICATION_TYPE":"U","ECCENTRICITY":"0.00021760","RA_OF_ASC_NODE":"114.2314","TIME_SYSTEM":"UTC","DECAY_DATE":null,"SITE":"AFETR","OBJECT_TYPE":"PAYLOAD","GP_ID":"215902766","COUNTRY_CODE":"US","RCS_SIZE":"LARGE","REV_AT_EPOCH":"484","EPOCH":"2022-10-23T00:00:02.000160","REF_FRAME":"TEME","FILE":"3629750","NORAD_CAT_ID":"53929","MEAN_ANOMALY":"299.4507","MEAN_MOTION":"15.73200011","PERIAPSIS":"348.296","OBJECT_NAME":"STARLINK-5018","APOAPSIS":"351.224","CENTER_NAME":"EARTH","MEAN_MOTION_DDOT":"0.0000000000000","OBJECT_ID":"2022-119AV","MEAN_MOTION_DOT":"0.00089184","MEAN_ELEMENT_THEORY":"SGP4","LAUNCH_DATE":"2022-09-24","ARG_OF_PERICENTER":"16.2905","INCLINATION":"53.2138","EPHEMERIS_TYPE":"0","PERIOD":"91.533","TLE_LINE1":"1 53929U 22119AV  22296.00002315  .00089184  00000-0  63310-3 0  9991","ELEMENT_SET_NO":"999","SEMIMAJOR_AXIS":"6727.895"},{"MEAN_ANOMALY":"152.3142","MEAN_MOTION":"15.73202053","PERIAPSIS":"349.081","OBJECT_NAME":"STARLINK-5010","FILE":"3629797","NORAD_CAT_ID":"53930","REF_FRAME":"TEME","APOAPSIS":"350.428","CENTER_NAME":"EARTH","RA_OF_ASC_NODE":"114.6374","TIME_SYSTEM":"UTC","CLASSIFICATION_TYPE":"U","ECCENTRICITY":"0.00010010","BSTAR":"0.00036121000000","TLE_LINE2":"2 53930  53.2154 114.6374 0001001  54.7089 152.3142 15.73202053  1303","EPOCH":"2022-10-22T22:00:00.999936","REV_AT_EPOCH":"130","RCS_SIZE":"LARGE","GP_ID":"215928241","COUNTRY_CODE":"US","DECAY_DATE":null,"SITE":"AFETR","OBJECT_TYPE":"PAYLOAD","INCLINATION":"53.2154","LAUNCH_DATE":"2022-09-24","ARG_OF_PERICENTER":"54.7089","SEMIMAJOR_AXIS":"6727.889","TLE_LINE1":"1 53930U 22119AW  22295.91667824  .00050382  00000-0  36121-3 0  9992","ELEMENT_SET_NO":"999","PERIOD":"91.533","EPHEMERIS_TYPE":"0","MEAN_MOTION_DDOT":"0.0000000000000","MEAN_ELEMENT_THEORY":"SGP4","MEAN_MOTION_DOT":"0.00050382","OBJECT_ID":"2022-119AW"},{"MEAN_MOTION_DOT":"0.00094456","OBJECT_ID":"2022-119AX","MEAN_ELEMENT_THEORY":"SGP4","MEAN_MOTION_DDOT":"0.0000000000000","EPHEMERIS_TYPE":"0","PERIOD":"91.534","TLE_LINE1":"1 53931U 22119AX  22295.91667824  .00094456  00000-0  67007-3 0  9990","ELEMENT_SET_NO":"999","SEMIMAJOR_AXIS":"6727.915","ARG_OF_PERICENTER":"40.2375","LAUNCH_DATE":"2022-09-24","INCLINATION":"53.2141","DECAY_DATE":null,"OBJECT_TYPE":"PAYLOAD","SITE":"AFETR","COUNTRY_CODE":"US","GP_ID":"215928823","RCS_SIZE":"LARGE","REV_AT_EPOCH":"130","EPOCH":"2022-10-22T22:00:00.999936","TLE_LINE2":"2 53931  53.2141 114.6329 0001679  40.2375 167.9775 15.73192935  1300","BSTAR":"0.00067007000000","ECCENTRICITY":"0.00016790","CLASSIFICATION_TYPE":"U","RA_OF_ASC_NODE":"114.6329","TIME_SYSTEM":"UTC","CENTER_NAME":"EARTH","APOAPSIS":"350.910","REF_FRAME":"TEME","NORAD_CAT_ID":"53931","FILE":"3629797","PERIAPSIS":"348.651","OBJECT_NAME":"STARLINK-5015","MEAN_ANOMALY":"167.9775","MEAN_MOTION":"15.73192935"},{"PERIOD":"91.533","EPHEMERIS_TYPE":"0","SEMIMAJOR_AXIS":"6727.871","TLE_LINE1":"1 53932U 22119AY  22295.91667824  .00060773  00000-0  43414-3 0  9992","ELEMENT_SET_NO":"999","INCLINATION":"53.2150","ARG_OF_PERICENTER":"35.8762","LAUNCH_DATE":"2022-09-24","OBJECT_ID":"2022-119AY","MEAN_MOTION_DOT":"0.00060773","MEAN_ELEMENT_THEORY":"SGP4","MEAN_MOTION_DDOT":"0.0000000000000","CENTER_NAME":"EARTH","APOAPSIS":"350.680","REF_FRAME":"TEME","PERIAPSIS":"348.791","OBJECT_NAME":"STARLINK-4772","MEAN_ANOMALY":"171.7819","MEAN_MOTION":"15.73208528","NORAD_CAT_ID":"53932","FILE":"3629797","GP_ID":"215929150","COUNTRY_CODE":"US","SITE":"AFETR","DECAY_DATE":null,"OBJECT_TYPE":"PAYLOAD","EPOCH":"2022-10-22T22:00:00.999936","RCS_SIZE":"LARGE","REV_AT_EPOCH":"130","TLE_LINE2":"2 53932  53.2150 114.6361 0001404  35.8762 171.7819 15.73208528  1301","BSTAR":"0.00043414000000","TIME_SYSTEM":"UTC","RA_OF_ASC_NODE":"114.6361","ECCENTRICITY":"0.00014040","CLASSIFICATION_TYPE":"U"},{"APOAPSIS":"350.569","CENTER_NAME":"EARTH","REF_FRAME":"TEME","PERIAPSIS":"349.005","OBJECT_NAME":"STARLINK-4782","MEAN_ANOMALY":"132.4043","MEAN_MOTION":"15.73190534","NORAD_CAT_ID":"53933","FILE":"3629797","GP_ID":"215928987","COUNTRY_CODE":"US","DECAY_DATE":null,"OBJECT_TYPE":"PAYLOAD","SITE":"AFETR","EPOCH":"2022-10-22T22:00:00.999936","RCS_SIZE":"LARGE","REV_AT_EPOCH":"130","TLE_LINE2":"2 53933  53.2148 114.6360 0001162  73.9869 132.4043 15.73190534  1300","BSTAR":"0.00086851000000","TIME_SYSTEM":"UTC","RA_OF_ASC_NODE":"114.6360","ECCENTRICITY":"0.00011620","CLASSIFICATION_TYPE":"U","PERIOD":"91.534","EPHEMERIS_TYPE":"0","SEMIMAJOR_AXIS":"6727.922","ELEMENT_SET_NO":"999","TLE_LINE1":"1 53933U 22119AZ  22295.91667824  .00123019  00000-0  86851-3 0  9998","INCLINATION":"53.2148","ARG_OF_PERICENTER":"73.9869","LAUNCH_DATE":"2022-09-24","MEAN_MOTION_DOT":"0.00123019","OBJECT_ID":"2022-119AZ","MEAN_ELEMENT_THEORY":"SGP4","MEAN_MOTION_DDOT":"0.0000000000000"},{"INCLINATION":"53.2149","LAUNCH_DATE":"2022-09-24","ARG_OF_PERICENTER":"56.9156","PERIOD":"91.533","EPHEMERIS_TYPE":"0","SEMIMAJOR_AXIS":"6727.877","ELEMENT_SET_NO":"999","TLE_LINE1":"1 53934U 22119BA  22295.91667824  .00041543  00000-0  29887-3 0  9996","MEAN_MOTION_DDOT":"0.0000000000000","MEAN_MOTION_DOT":"0.00041543","OBJECT_ID":"2022-119BA","MEAN_ELEMENT_THEORY":"SGP4","REF_FRAME":"TEME","MEAN_ANOMALY":"151.8672","MEAN_MOTION":"15.73206373","OBJECT_NAME":"STARLINK-4775","PERIAPSIS":"348.902","FILE":"3629797","NORAD_CAT_ID":"53934","CENTER_NAME":"EARTH","APOAPSIS":"350.582","BSTAR":"0.00029887000000","TLE_LINE2":"2 53934  53.2149 114.6310 0001249  56.9156 151.8672 15.73206373  1305","RA_OF_ASC_NODE":"114.6310","TIME_SYSTEM":"UTC","CLASSIFICATION_TYPE":"U","ECCENTRICITY":"0.00012490","GP_ID":"215928660","COUNTRY_CODE":"US","OBJECT_TYPE":"PAYLOAD","DECAY_DATE":null,"SITE":"AFETR","EPOCH":"2022-10-22T22:00:00.999936","RCS_SIZE":"LARGE","REV_AT_EPOCH":"130"}];
